PANDORA
1 99152U 80229J   26029.72410880  .00000000  00000-0  37770-3 0    06
2 99152  97.8018  30.5863 0004520 208.5585 250.5226 14.87785281    03
